STARLINK-3838           
1 52352U 22045X   26061.79627890  .00000303  00000+0  37093-4 0  9994
2 52352  53.2168 230.0677 0001350  87.5611 272.5536 15.08842160214749
STARLINK-3807           
1 52353U 22045Y   26061.80363726 -.00000452  00000+0 -10333-4 0  9997
2 52353  53.2164 230.0341 0001326  95.2016 264.9128 15.08840048214747
STARLINK-3877           
1 52355U 22045AA  26061.79995850  .00000096  00000+0  24131-4 0  9999
2 52355  53.2164 230.0507 0001285  95.6434 264.4704 15.08839876214747
STARLINK-3801           
1 52356U 22045AB  26061.72268362  .00001623  00000+0  12004-3 0  9996
2 52356  53.2166 230.4259 0001292  98.6694 261.4445 15.08842565214734
STARLINK-3821           
1 52357U 22045AC  26061.72636100  .00001015  00000+0  81843-4 0  9999
2 52357  53.2168 230.3815 0001433  87.3512 272.7645 15.08839713214733
STARLINK-3837           
1 52358U 22045AD  26061.77419892  .00000308  00000+0  37462-4 0  9994
2 52358  53.2152 230.1651 0001242  90.5780 269.5355 15.08838496214744
STARLINK-3853           
1 52359U 22045AE  26061.72364009 -.00000064  00000+0  14047-4 0  9993
2 52359  53.2172 230.4039 0001325  85.8804 274.2339 15.08837260214738
STARLINK-3728           
1 52361U 22045AG  26061.78156087  .00002292  00000+0  16201-3 0  9994
2 52361  53.2176 230.1336 0001510  90.9216 269.1949 15.08846919214744
STARLINK-3848           
1 52362U 22045AH  26061.83031890  .00000281  00000+0  35719-4 0  9997
2 52362  53.2168 219.9136 0001320  85.2115 274.9028 15.08839085214886
STARLINK-3830           
1 52363U 22045AJ  26061.77787993  .00000285  00000+0  36030-4 0  9994
2 52363  53.2152 230.1494 0001425  91.3728 268.7427 15.08835593214745
STARLINK-3820           
1 52364U 22045AK  26061.81560351  .00003566  00000+0  24199-3 0  9994
2 52364  53.2158 219.8926 0001182  87.8447 272.2680 15.08849890214885
STARLINK-3874           
1 52365U 22045AL  26061.70520475  .00000606  00000+0  56147-4 0  9997
2 52365  53.2177 220.4766 0001414  89.3383 270.7771 15.08833664214865
STARLINK-3808           
1 52366U 22045AM  26061.75304030  .00000509  00000+0  50048-4 0  9996
2 52366  53.2171 220.2608 0001280  89.5049 270.6090 15.08840834214876
STARLINK-3817           
1 52367U 22045AN  26061.76040565  .00006890  00000+0  45061-3 0  9995
2 52367  53.2172 220.2285 0000906 103.7795 256.3298 15.08834806214873
STARLINK-3834           
1 52368U 22045AP  26061.67576117 -.00000672  00000+0 -24166-4 0  9991
2 52368  53.2173 220.6069 0001191  97.9479 262.1648 15.08831010214855
STARLINK-3841           
1 52369U 22045AQ  26061.75671951  .00000327  00000+0  38630-4 0  9999
2 52369  53.2172 220.2439 0001203  87.7600 272.3530 15.08840729214871
