[{"OBJECT_NAME":"STARLINK-3838","OBJECT_ID":"2022-045X","EPOCH":"2026-03-02T19:06:38.496960","MEAN_MOTION":15.0884216,"ECCENTRICITY":0.00013507,"INCLINATION":53.2168,"RA_OF_ASC_NODE":230.0677,"ARG_OF_PERICENTER":87.5611,"MEAN_ANOMALY":272.5536,"EPHEMERIS_TYPE":0,"CLASSIFICATION_TYPE":"U","NORAD_CAT_ID":52352,"ELEMENT_SET_NO":999,"REV_AT_EPOCH":21474,"BSTAR":3.7093458e-5,"MEAN_MOTION_DOT":3.03e-6,"MEAN_MOTION_DDOT":0},{"OBJECT_NAME":"STARLINK-3807","OBJECT_ID":"2022-045Y","EPOCH":"2026-03-02T19:17:14.259264","MEAN_MOTION":15.08840048,"ECCENTRICITY":0.0001326,"INCLINATION":53.2164,"RA_OF_ASC_NODE":230.0341,"ARG_OF_PERICENTER":95.2016,"MEAN_ANOMALY":264.9128,"EPHEMERIS_TYPE":0,"CLASSIFICATION_TYPE":"U","NORAD_CAT_ID":52353,"ELEMENT_SET_NO":999,"REV_AT_EPOCH":21474,"BSTAR":-1.0333e-5,"MEAN_MOTION_DOT":-4.52e-6,"MEAN_MOTION_DDOT":0},{"OBJECT_NAME":"STARLINK-3877","OBJECT_ID":"2022-045AA","EPOCH":"2026-03-02T19:11:56.414400","MEAN_MOTION":15.08839876,"ECCENTRICITY":0.0001285,"INCLINATION":53.2164,"RA_OF_ASC_NODE":230.0507,"ARG_OF_PERICENTER":95.6434,"MEAN_ANOMALY":264.4704,"EPHEMERIS_TYPE":0,"CLASSIFICATION_TYPE":"U","NORAD_CAT_ID":52355,"ELEMENT_SET_NO":999,"REV_AT_EPOCH":21474,"BSTAR":2.4131e-5,"MEAN_MOTION_DOT":9.6e-7,"MEAN_MOTION_DDOT":0},{"OBJECT_NAME":"STARLINK-3801","OBJECT_ID":"2022-045AB","EPOCH":"2026-03-02T17:20:39.864768","MEAN_MOTION":15.08842565,"ECCENTRICITY":0.00012922,"INCLINATION":53.2166,"RA_OF_ASC_NODE":230.4259,"ARG_OF_PERICENTER":98.6694,"MEAN_ANOMALY":261.4445,"EPHEMERIS_TYPE":0,"CLASSIFICATION_TYPE":"U","NORAD_CAT_ID":52356,"ELEMENT_SET_NO":999,"REV_AT_EPOCH":21473,"BSTAR":0.00012004139,"MEAN_MOTION_DOT":1.623e-5,"MEAN_MOTION_DDOT":0},{"OBJECT_NAME":"STARLINK-3821","OBJECT_ID":"2022-045AC","EPOCH":"2026-03-02T17:25:57.590400","MEAN_MOTION":15.08839713,"ECCENTRICITY":0.00014337,"INCLINATION":53.2168,"RA_OF_ASC_NODE":230.3815,"ARG_OF_PERICENTER":87.3512,"MEAN_ANOMALY":272.7645,"EPHEMERIS_TYPE":0,"CLASSIFICATION_TYPE":"U","NORAD_CAT_ID":52357,"ELEMENT_SET_NO":999,"REV_AT_EPOCH":21473,"BSTAR":8.1843049e-5,"MEAN_MOTION_DOT":1.015e-5,"MEAN_MOTION_DDOT":0},{"OBJECT_NAME":"STARLINK-3837","OBJECT_ID":"2022-045AD","EPOCH":"2026-03-02T18:34:50.786688","MEAN_MOTION":15.08838496,"ECCENTRICITY":0.00012422,"INCLINATION":53.2152,"RA_OF_ASC_NODE":230.1651,"ARG_OF_PERICENTER":90.578,"MEAN_ANOMALY":269.5355,"EPHEMERIS_TYPE":0,"CLASSIFICATION_TYPE":"U","NORAD_CAT_ID":52358,"ELEMENT_SET_NO":999,"REV_AT_EPOCH":21474,"BSTAR":3.7461616e-5,"MEAN_MOTION_DOT":3.08e-6,"MEAN_MOTION_DDOT":0},{"OBJECT_NAME":"STARLINK-3853","OBJECT_ID":"2022-045AE","EPOCH":"2026-03-02T17:22:02.503776","MEAN_MOTION":15.0883726,"ECCENTRICITY":0.00013251,"INCLINATION":53.2172,"RA_OF_ASC_NODE":230.4039,"ARG_OF_PERICENTER":85.8804,"MEAN_ANOMALY":274.2339,"EPHEMERIS_TYPE":0,"CLASSIFICATION_TYPE":"U","NORAD_CAT_ID":52359,"ELEMENT_SET_NO":999,"REV_AT_EPOCH":21473,"BSTAR":1.4047045e-5,"MEAN_MOTION_DOT":-6.4e-7,"MEAN_MOTION_DDOT":0},{"OBJECT_NAME":"STARLINK-3728","OBJECT_ID":"2022-045AG","EPOCH":"2026-03-02T18:45:26.859168","MEAN_MOTION":15.08846919,"ECCENTRICITY":0.00015101,"INCLINATION":53.2176,"RA_OF_ASC_NODE":230.1336,"ARG_OF_PERICENTER":90.9216,"MEAN_ANOMALY":269.1949,"EPHEMERIS_TYPE":0,"CLASSIFICATION_TYPE":"U","NORAD_CAT_ID":52361,"ELEMENT_SET_NO":999,"REV_AT_EPOCH":21474,"BSTAR":0.00016200788,"MEAN_MOTION_DOT":2.292e-5,"MEAN_MOTION_DDOT":0},{"OBJECT_NAME":"STARLINK-3848","OBJECT_ID":"2022-045AH","EPOCH":"2026-03-02T19:55:39.552960","MEAN_MOTION":15.08839085,"ECCENTRICITY":0.00013206,"INCLINATION":53.2168,"RA_OF_ASC_NODE":219.9136,"ARG_OF_PERICENTER":85.2115,"MEAN_ANOMALY":274.9028,"EPHEMERIS_TYPE":0,"CLASSIFICATION_TYPE":"U","NORAD_CAT_ID":52362,"ELEMENT_SET_NO":999,"REV_AT_EPOCH":21488,"BSTAR":3.5718622e-5,"MEAN_MOTION_DOT":2.81e-6,"MEAN_MOTION_DDOT":0},{"OBJECT_NAME":"STARLINK-3830","OBJECT_ID":"2022-045AJ","EPOCH":"2026-03-02T18:40:08.825952","MEAN_MOTION":15.08835593,"ECCENTRICITY":0.00014256,"INCLINATION":53.2152,"RA_OF_ASC_NODE":230.1494,"ARG_OF_PERICENTER":91.3728,"MEAN_ANOMALY":268.7427,"EPHEMERIS_TYPE":0,"CLASSIFICATION_TYPE":"U","NORAD_CAT_ID":52363,"ELEMENT_SET_NO":999,"REV_AT_EPOCH":21474,"BSTAR":3.602967e-5,"MEAN_MOTION_DOT":2.85e-6,"MEAN_MOTION_DDOT":0},{"OBJECT_NAME":"STARLINK-3820","OBJECT_ID":"2022-045AK","EPOCH":"2026-03-02T19:34:28.143264","MEAN_MOTION":15.0884989,"ECCENTRICITY":0.00011829,"INCLINATION":53.2158,"RA_OF_ASC_NODE":219.8926,"ARG_OF_PERICENTER":87.8447,"MEAN_ANOMALY":272.268,"EPHEMERIS_TYPE":0,"CLASSIFICATION_TYPE":"U","NORAD_CAT_ID":52364,"ELEMENT_SET_NO":999,"REV_AT_EPOCH":21488,"BSTAR":0.0002419854,"MEAN_MOTION_DOT":3.566e-5,"MEAN_MOTION_DDOT":0},{"OBJECT_NAME":"STARLINK-3874","OBJECT_ID":"2022-045AL","EPOCH":"2026-03-02T16:55:29.690400","MEAN_MOTION":15.08833664,"ECCENTRICITY":0.00014144,"INCLINATION":53.2177,"RA_OF_ASC_NODE":220.4766,"ARG_OF_PERICENTER":89.3383,"MEAN_ANOMALY":270.7771,"EPHEMERIS_TYPE":0,"CLASSIFICATION_TYPE":"U","NORAD_CAT_ID":52365,"ELEMENT_SET_NO":999,"REV_AT_EPOCH":21486,"BSTAR":5.6146573e-5,"MEAN_MOTION_DOT":6.06e-6,"MEAN_MOTION_DDOT":0},{"OBJECT_NAME":"STARLINK-3808","OBJECT_ID":"2022-045AM","EPOCH":"2026-03-02T18:04:22.681920","MEAN_MOTION":15.08840834,"ECCENTRICITY":0.00012803,"INCLINATION":53.2171,"RA_OF_ASC_NODE":220.2608,"ARG_OF_PERICENTER":89.5049,"MEAN_ANOMALY":270.609,"EPHEMERIS_TYPE":0,"CLASSIFICATION_TYPE":"U","NORAD_CAT_ID":52366,"ELEMENT_SET_NO":999,"REV_AT_EPOCH":21487,"BSTAR":5.0048079e-5,"MEAN_MOTION_DOT":5.09e-6,"MEAN_MOTION_DDOT":0},{"OBJECT_NAME":"STARLINK-3817","OBJECT_ID":"2022-045AN","EPOCH":"2026-03-02T18:14:59.048160","MEAN_MOTION":15.08834806,"ECCENTRICITY":9.063e-5,"INCLINATION":53.2172,"RA_OF_ASC_NODE":220.2285,"ARG_OF_PERICENTER":103.7795,"MEAN_ANOMALY":256.3298,"EPHEMERIS_TYPE":0,"CLASSIFICATION_TYPE":"U","NORAD_CAT_ID":52367,"ELEMENT_SET_NO":999,"REV_AT_EPOCH":21487,"BSTAR":0.00045060733,"MEAN_MOTION_DOT":6.89e-5,"MEAN_MOTION_DDOT":0},{"OBJECT_NAME":"STARLINK-3834","OBJECT_ID":"2022-045AP","EPOCH":"2026-03-02T16:13:05.765088","MEAN_MOTION":15.0883101,"ECCENTRICITY":0.0001191,"INCLINATION":53.2173,"RA_OF_ASC_NODE":220.6069,"ARG_OF_PERICENTER":97.9479,"MEAN_ANOMALY":262.1648,"EPHEMERIS_TYPE":0,"CLASSIFICATION_TYPE":"U","NORAD_CAT_ID":52368,"ELEMENT_SET_NO":999,"REV_AT_EPOCH":21485,"BSTAR":-2.4166479e-5,"MEAN_MOTION_DOT":-6.72e-6,"MEAN_MOTION_DDOT":0},{"OBJECT_NAME":"STARLINK-3841","OBJECT_ID":"2022-045AQ","EPOCH":"2026-03-02T18:09:40.565664","MEAN_MOTION":15.08840729,"ECCENTRICITY":0.00012035,"INCLINATION":53.2172,"RA_OF_ASC_NODE":220.2439,"ARG_OF_PERICENTER":87.76,"MEAN_ANOMALY":272.353,"EPHEMERIS_TYPE":0,"CLASSIFICATION_TYPE":"U","NORAD_CAT_ID":52369,"ELEMENT_SET_NO":999,"REV_AT_EPOCH":21487,"BSTAR":3.8630298e-5,"MEAN_MOTION_DOT":3.27e-6,"MEAN_MOTION_DDOT":0}]
